NORAD_CAT_ID,OBJECT_NAME,OBJECT_TYPE,EPOCH,MEAN_MOTION,ECCENTRICITY,INCLINATION,RA_OF_ASC_NODE,ARG_OF_PERICENTER,MEAN_ANOMALY,BSTAR,MEAN_MOTION_DOT,MEAN_MOTION_DDOT,TLE_LINE0,TLE_LINE1,TLE_LINE2,SEMIMAJOR_AXIS,PERIOD,APOGEE,PERIGEE,DECAYED
53034.0,STARLINK-4151,PAYLOAD,2023-12-14 16:30:52,15.08838502,0.0001769,53.2174,137.342,73.8837,286.235,3.7349e-05,3.06e-06,0.0,0 STARLINK-4151,1 53034U 22076BA  23348.68810967  .00000306  00000-0  37349-4 0  9996,2 53034  53.2174 137.3420 0001769  73.8837 286.2350 15.08838502 80394,6917.885,95.438,540.974,538.526,0.0
53034.0,STARLINK-4151,PAYLOAD,2023-12-15 14:46:16,15.0883771,0.0001417,53.2162,133.1864,95.1483,264.9671,2.7874e-05,1.56e-06,0.0,0 STARLINK-4151,1 53034U 22076BA  23349.61547114  .00000156  00000-0  27874-4 0  9996,2 53034  53.2162 133.1864 0001417  95.1483 264.9671 15.08837710 80075,6917.887,95.438,540.733,538.772,0.0
53034.0,STARLINK-4151,PAYLOAD,2023-12-15 16:21:39,15.08838782,0.0001412,53.2159,132.8889,96.0815,264.0338,3.5337e-05,2.74e-06,0.0,0 STARLINK-4151,1 53034U 22076BA  23349.68171027  .00000274  00000-0  35337-4 0  9993,2 53034  53.2159 132.8889 0001412  96.0815 264.0338 15.08838782 80080,6917.884,95.438,540.726,538.772,0.0
53034.0,STARLINK-4151,PAYLOAD,2023-12-16 14:37:03,15.08842007,0.0001581,53.2173,128.719,111.6015,248.5146,0.00012285,1.668e-05,0.0,0 STARLINK-4151,1 53034U 22076BA  23350.60906614  .00001668  00000-0  12285-3 0  9999,2 53034  53.2173 128.7190 0001581 111.6015 248.5146 15.08842007 80223,6917.874,95.437,540.833,538.646,0.0
53034.0,STARLINK-4151,PAYLOAD,2023-12-16 16:12:26,15.08842499,0.0001513,53.217,128.4222,107.169,252.9468,0.0001259,1.716e-05,0.0,0 STARLINK-4151,1 53034U 22076BA  23350.67530615  .00001716  00000-0  12590-3 0  9993,2 53034  53.2170 128.4222 0001513 107.1690 252.9468 15.08842499 80699,6917.873,95.437,540.784,538.691,0.0
53034.0,STARLINK-4151,PAYLOAD,2023-12-17 14:27:50,15.08840374,0.0001441,53.217,124.2576,100.3222,259.7933,7.5669e-05,9.17e-06,0.0,0 STARLINK-4151,1 53034U 22076BA  23351.60266990  .00000917  00000-0  75669-4 0  9998,2 53034  53.2170 124.2576 0001441 100.3222 259.7933 15.08840374 80378,6917.879,95.438,540.741,538.747,0.0
53034.0,STARLINK-4151,PAYLOAD,2023-12-18 14:18:37,15.08847836,0.0001572,53.2179,119.7993,105.5021,254.6145,0.00012043,1.63e-05,0.0,0 STARLINK-4151,1 53034U 22076BA  23352.59626235  .00001630  00000-0  12043-3 0  9998,2 53034  53.2179 119.7993 0001572 105.5021 254.6145 15.08847836 80524,6917.856,95.437,540.809,538.634,0.0
53034.0,STARLINK-4151,PAYLOAD,2023-12-18 15:54:00,15.08848998,0.0001515,53.217,119.5009,98.4003,261.7161,0.00012663,1.728e-05,0.0,0 STARLINK-4151,1 53034U 22076BA  23352.66250194  .00001728  00000-0  12663-3 0  9999,2 53034  53.2170 119.5009 0001515  98.4003 261.7161 15.08848998 80996,6917.853,95.437,540.766,538.67,0.0
53034.0,STARLINK-4151,PAYLOAD,2023-12-19 14:09:24,15.08842274,0.0001637,53.2177,115.3398,105.3337,254.7836,1.7841e-05,-4e-08,0.0,0 STARLINK-4151,1 53034U 22076BA  23353.58986398 -.00000004  00000-0  17841-4 0  9994,2 53034  53.2177 115.3398 0001637 105.3337 254.7836 15.08842274 80678,6917.873,95.437,540.871,538.606,0.0
53034.0,STARLINK-4151,PAYLOAD,2023-12-19 15:44:47,15.08844417,0.0001562,53.2164,115.0389,72.1626,287.9536,5.3118e-05,5.58e-06,0.0,0 STARLINK-4151,1 53034U 22076BA  23353.65610409  .00000558  00000-0  53118-4 0  9999,2 53034  53.2164 115.0389 0001562  72.1626 287.9536 15.08844417 81149,6917.867,95.437,540.812,538.651,0.0
53034.0,STARLINK-4151,PAYLOAD,2023-12-20 14:00:11,15.08835132,0.0001447,53.217,110.8788,87.1268,272.9889,-8.7787e-05,-1.685e-05,0.0,0 STARLINK-4151,1 53034U 22076BA  23354.58347010 -.00001685  00000-0 -87787-4 0  9990,2 53034  53.2170 110.8788 0001447  87.1268 272.9889 15.08835132 80825,6917.895,95.438,540.761,538.759,0.0
53034.0,STARLINK-4151,PAYLOAD,2023-12-20 15:35:35,15.08836109,0.0001515,53.217,110.5805,72.0987,288.017,-5.7973e-05,-1.21e-05,0.0,0 STARLINK-4151,1 53034U 22076BA  23354.64971072 -.00001210  00000-0 -57973-4 0  9996,2 53034  53.2170 110.5805 0001515  72.0987 288.0170 15.08836109 81297,6917.892,95.438,540.805,538.709,0.0
53034.0,STARLINK-4151,PAYLOAD,2023-12-21 13:50:59,15.08843441,0.0001945,53.2171,106.4157,52.1847,307.9321,0.00016391,2.322e-05,0.0,0 STARLINK-4151,1 53034U 22076BA  23355.57707315  .00002322  00000-0  16391-3 0  9997,2 53034  53.2171 106.4157 0001945  52.1847 307.9321 15.08843441 80973,6917.87,95.437,541.08,538.389,0.0
53034.0,STARLINK-4151,PAYLOAD,2023-12-22 13:41:46,15.08845387,0.0001513,53.2166,101.9593,83.6274,276.489,0.00018897,2.721e-05,0.0,0 STARLINK-4151,1 53034U 22076BA  23356.57067239  .00002721  00000-0  18897-3 0  9998,2 53034  53.2166 101.9593 0001513  83.6274 276.4890 15.08845387 81125,6917.864,95.437,540.776,538.682,0.0
53034.0,STARLINK-4151,PAYLOAD,2023-12-23 11:57:10,15.08841586,0.0001662,53.2179,97.7969,102.0229,258.095,-1.2104e-05,-4.81e-06,0.0,0 STARLINK-4151,1 53034U 22076BA  23357.49803379 -.00000481  00000-0 -12104-4 0  9992,2 53034  53.2179  97.7969 0001662 102.0229 258.0950 15.08841586 81725,6917.876,95.437,540.89,538.591,0.0
53034.0,STARLINK-4151,PAYLOAD,2023-12-23 13:32:32,15.08847328,0.000153,53.2181,97.4977,108.2418,251.874,-2.1189e-07,-2.91e-06,0.0,0 STARLINK-4151,1 53034U 22076BA  23357.56427052 -.00000291  00000-0 -21189-6 0  9994,2 53034  53.2181  97.4977 0001530 108.2418 251.8740 15.08847328 81274,6917.858,95.437,540.781,538.665,0.0
53034.0,STARLINK-4151,PAYLOAD,2023-12-24 13:23:19,15.08847545,0.0001566,53.2186,93.04,113.0822,247.0335,6.8037e-05,7.95e-06,0.0,0 STARLINK-4151,1 53034U 22076BA  23358.55786885  .00000795  00000-0  68037-4 0  9994,2 53034  53.2186  93.0400 0001566 113.0822 247.0335 15.08847545 81429,6917.857,95.437,540.806,538.639,0.0
53034.0,STARLINK-4151,PAYLOAD,2023-12-25 11:38:44,15.08840536,0.0001489,53.2181,88.8756,106.1416,253.974,0.00010252,1.344e-05,0.0,0 STARLINK-4151,1 53034U 22076BA  23359.48523454  .00001344  00000-0  10252-3 0  9994,2 53034  53.2181  88.8756 0001489 106.1416 253.9740 15.08840536 82022,6917.879,95.438,540.774,538.714,0.0
53034.0,STARLINK-4151,PAYLOAD,2023-12-26 11:29:32,15.08835656,0.0001343,53.2182,84.4128,103.447,256.6672,-2.1624e-05,-6.32e-06,0.0,0 STARLINK-4151,1 53034U 22076BA  23360.47884330 -.00000632  00000-0 -21624-4 0  9995,2 53034  53.2182  84.4128 0001343 103.4470 256.6672 15.08835656 82174,6917.894,95.438,540.688,538.83,0.0
53034.0,STARLINK-4151,PAYLOAD,2023-12-27 11:20:18,15.08848466,0.0001783,53.2175,79.951,44.4018,315.7117,0.00013946,1.933e-05,0.0,0 STARLINK-4151,1 53034U 22076BA  23361.47243293  .00001933  00000-0  13946-3 0  9993,2 53034  53.2175  79.9510 0001783  44.4018 315.7117 15.08848466 82321,6917.855,95.437,540.953,538.486,0.0
53034.0,STARLINK-4151,PAYLOAD,2023-12-27 12:55:40,15.08859561,0.0001169,53.2169,79.6543,96.1965,263.9161,0.00023249,3.416e-05,0.0,0 STARLINK-4151,1 53034U 22076BA  23361.53866160  .00003416  00000-0  23249-3 0  9999,2 53034  53.2169  79.6543 0001169  96.1965 263.9161 15.08859561 81870,6917.821,95.436,540.494,538.877,0.0
53034.0,STARLINK-4151,PAYLOAD,2023-12-27 14:31:03,15.08860567,0.0001412,53.2179,79.3556,99.8963,260.2189,0.00021538,3.143e-05,0.0,0 STARLINK-4151,1 53034U 22076BA  23361.60490098  .00003143  00000-0  21538-3 0  9996,2 53034  53.2179  79.3556 0001412  99.8963 260.2189 15.08860567 82342,6917.818,95.436,540.659,538.706,0.0
53034.0,STARLINK-4151,PAYLOAD,2023-12-28 11:11:05,15.08836393,0.0001999,53.2184,75.4893,133.5701,226.5457,6.2526e-05,7.07e-06,0.0,0 STARLINK-4151,1 53034U 22076BA  23362.46604090  .00000707  00000-0  62526-4 0  9996,2 53034  53.2184  75.4893 0001999 133.5701 226.5457 15.08836393 82472,6917.891,95.438,541.139,538.374,0.0
53034.0,STARLINK-4151,PAYLOAD,2023-12-28 12:46:29,15.08836458,0.0001252,53.2184,75.1936,88.757,271.3565,9.1297e-05,1.165e-05,0.0,0 STARLINK-4151,1 53034U 22076BA  23362.53228346  .00001165  00000-0  91297-4 0  9996,2 53034  53.2184  75.1936 0001252  88.7570 271.3565 15.08836458 82025,6917.891,95.438,540.622,538.89,0.0
53034.0,STARLINK-4151,PAYLOAD,2023-12-29 11:01:53,15.08845706,0.0001339,53.2176,71.0319,77.8275,282.2867,-7.4225e-05,-1.469e-05,0.0,0 STARLINK-4151,1 53034U 22076BA  23363.45964330 -.00001469  00000-0 -74225-4 0  9999,2 53034  53.2176  71.0319 0001339  77.8275 282.2867 15.08845706 82160,6917.863,95.437,540.654,538.802,0.0
53034.0,STARLINK-4151,PAYLOAD,2023-12-30 10:52:40,15.08842713,0.000143,53.2167,66.5716,80.6074,279.508,0.00024969,3.688e-05,0.0,0 STARLINK-4151,1 53034U 22076BA  23364.45324427  .00003688  00000-0  24969-3 0  9999,2 53034  53.2167  66.5716 0001430  80.6074 279.5080 15.08842713 82779,6917.872,95.437,540.726,538.748,0.0
53034.0,STARLINK-4151,PAYLOAD,2023-12-31 04:21:54,15.08839079,0.0001533,53.2177,63.3034,106.56,253.5561,0.0001201,1.624e-05,0.0,0 STARLINK-4151,1 53034U 22076BA  23365.18188593  .00001624  00000-0  12010-3 0  9994,2 53034  53.2177  63.3034 0001533 106.5600 253.5561 15.08839079 82884,6917.883,95.438,540.809,538.688,0.0
53034.0,STARLINK-4151,PAYLOAD,2023-12-31 10:43:27,15.0883786,0.0001513,53.2187,62.1109,102.4083,257.7078,5.6202e-05,6.07e-06,0.0,0 STARLINK-4151,1 53034U 22076BA  23365.44684796  .00000607  00000-0  56202-4 0  9991,2 53034  53.2187  62.1109 0001513 102.4083 257.7078 15.08837860 82462,6917.887,95.438,540.799,538.705,0.0
53034.0,STARLINK-4151,PAYLOAD,2024-01-01 08:58:51,15.08840402,0.000156,53.2188,57.9487,104.6898,255.4268,4.345e-05,4.04e-06,0.0,0 STARLINK-4151,1 53034U 22076BA  24001.37420678  .00000404  00000-0  43450-4 0  9994,2 53034  53.2188  57.9487 0001560 104.6898 255.4268 15.08840402 83063,6917.879,95.438,540.823,538.665,0.0
53034.0,STARLINK-4151,PAYLOAD,2024-01-02 10:25:01,15.08840842,0.00015,53.2187,53.1923,98.2574,261.8588,0.00012216,1.657e-05,0.0,0 STARLINK-4151,1 53034U 22076BA  24002.43404659  .00001657  00000-0  12216-3 0  9999,2 53034  53.2187  53.1923 0001500  98.2574 261.8588 15.08840842 83220,6917.878,95.438,540.78,538.705,0.0
